NORAD_CAT_ID,OBJECT_NAME,OBJECT_TYPE,EPOCH,MEAN_MOTION,ECCENTRICITY,INCLINATION,RA_OF_ASC_NODE,ARG_OF_PERICENTER,MEAN_ANOMALY,BSTAR,MEAN_MOTION_DOT,MEAN_MOTION_DDOT,TLE_LINE0,TLE_LINE1,TLE_LINE2,SEMIMAJOR_AXIS,PERIOD,APOGEE,PERIGEE,DECAYED
53911.0,STARLINK-5048,PAYLOAD,2024-04-08 14:34:30,15.08845636,0.0001798,53.2139,217.0924,92.6189,267.5009,0.00029776,4.455e-05,0.0,0 STARLINK-5048,1 53911U 22119AB  24099.60729360  .00004455  00000-0  29776-3 0  9993,2 53911  53.2139 217.0924 0001798  92.6189 267.5009 15.08845636 86132,6917.863,95.437,540.972,538.484,0.0
53911.0,STARLINK-5048,PAYLOAD,2024-04-09 08:03:44,15.0884202,5.9e-05,53.2154,213.8205,62.9423,297.1629,9.8276e-05,1.277e-05,0.0,0 STARLINK-5048,1 53911U 22119AB  24100.33593461  .00001277  00000-0  98276-4 0  9998,2 53911  53.2154 213.8205 0000590  62.9423 297.1629 15.08842020 85821,6917.874,95.437,540.147,539.331,0.0
53911.0,STARLINK-5048,PAYLOAD,2024-04-09 14:25:17,15.08843284,6.71e-05,53.215,212.6308,66.9825,293.1238,9.9231e-05,1.292e-05,0.0,0 STARLINK-5048,1 53911U 22119AB  24100.60089352  .00001292  00000-0  99231-4 0  9996,2 53911  53.2150 212.6308 0000671  66.9825 293.1238 15.08843284 86284,6917.87,95.437,540.2,539.271,0.0
53911.0,STARLINK-5048,PAYLOAD,2024-04-10 14:16:04,15.08838448,0.0001933,53.2179,208.1738,92.7773,267.344,-0.00020019,-3.473e-05,0.0,0 STARLINK-5048,1 53911U 22119AB  24101.59449733 -.00003473  00000-0 -20019-3 0  9990,2 53911  53.2179 208.1738 0001933  92.7773 267.3440 15.08838448 86434,6917.885,95.438,541.087,538.413,0.0
53911.0,STARLINK-5048,PAYLOAD,2024-04-11 12:31:27,15.08865069,0.0001708,53.2189,204.0111,100.061,260.0575,-2.291e-05,-6.53e-06,0.0,0 STARLINK-5048,1 53911U 22119AB  24102.52184501 -.00000653  00000-0 -22910-4 0  9993,2 53911  53.2189 204.0111 0001708 100.0610 260.0575 15.08865069 86155,6917.804,95.436,540.85,538.487,0.0
53911.0,STARLINK-5048,PAYLOAD,2024-04-11 14:06:51,15.08853015,0.0001436,53.2169,203.713,85.1379,274.9778,0.00025651,3.798e-05,0.0,0 STARLINK-5048,1 53911U 22119AB  24102.58809084  .00003798  00000-0  25651-3 0  9994,2 53911  53.2169 203.7130 0001436  85.1379 274.9778 15.08853015 86587,6917.841,95.437,540.699,538.712,0.0
53911.0,STARLINK-5048,PAYLOAD,2024-04-12 12:22:15,15.08841084,0.0001585,53.2167,199.5488,66.2666,293.8492,0.000131,1.798e-05,0.0,0 STARLINK-5048,1 53911U 22119AB  24103.51545914  .00001798  00000-0  13100-3 0  9991,2 53911  53.2167 199.5488 0001585  66.2666 293.8492 15.08841084 86303,6917.877,95.437,540.839,538.646,0.0
53911.0,STARLINK-5048,PAYLOAD,2024-04-12 13:57:38,15.08843067,0.0001698,53.2176,199.2508,68.4281,291.6892,0.00015003,2.101e-05,0.0,0 STARLINK-5048,1 53911U 22119AB  24103.58169847  .00002101  00000-0  15003-3 0  9998,2 53911  53.2176 199.2508 0001698  68.4281 291.6892 15.08843067 86735,6917.871,95.437,540.911,538.561,0.0
53911.0,STARLINK-5048,PAYLOAD,2024-04-13 12:13:03,15.08836917,0.0001946,53.2172,195.0892,65.0085,295.1109,-7.9649e-05,-1.555e-05,0.0,0 STARLINK-5048,1 53911U 22119AB  24104.50906434 -.00001555  00000-0 -79649-4 0  9993,2 53911  53.2172 195.0892 0001946  65.0085 295.1109 15.08836917 86457,6917.89,95.438,541.101,538.409,0.0
53911.0,STARLINK-5048,PAYLOAD,2024-04-13 13:48:26,15.08837804,0.0002084,53.2177,194.7915,61.9278,298.1925,-5.1462e-05,-1.107e-05,0.0,0 STARLINK-5048,1 53911U 22119AB  24104.57530428 -.00001107  00000-0 -51462-4 0  9992,2 53911  53.2177 194.7915 0002084  61.9278 298.1925 15.08837804 86889,6917.887,95.438,541.194,538.31,0.0
53911.0,STARLINK-5048,PAYLOAD,2024-04-14 12:03:49,15.08849335,0.0001899,53.2174,190.6311,67.4012,292.7181,0.00034134,5.15e-05,0.0,0 STARLINK-5048,1 53911U 22119AB  24105.50266065  .00005150  00000-0  34134-3 0  9995,2 53911  53.2174 190.6311 0001899  67.4012 292.7181 15.08849335 86607,6917.852,95.437,541.031,538.403,0.0
53911.0,STARLINK-5048,PAYLOAD,2024-04-15 05:33:04,15.08844723,0.0001568,53.2167,187.3599,73.0842,287.0322,0.00014621,2.04e-05,0.0,0 STARLINK-5048,1 53911U 22119AB  24106.23130276  .00002040  00000-0  14621-3 0  9994,2 53911  53.2167 187.3599 0001568  73.0842 287.0322 15.08844723 86719,6917.866,95.437,540.816,538.646,0.0
53911.0,STARLINK-5048,PAYLOAD,2024-04-15 11:54:37,15.08841595,0.0001461,53.2163,186.1688,84.1447,275.9712,0.00010244,1.343e-05,0.0,0 STARLINK-5048,1 53911U 22119AB  24106.49626299  .00001343  00000-0  10244-3 0  9999,2 53911  53.2163 186.1688 0001461  84.1447 275.9712 15.08841595 87171,6917.876,95.437,540.751,538.73,0.0
53911.0,STARLINK-5048,PAYLOAD,2024-04-16 11:45:23,15.0886171,0.000156,53.2166,181.7058,97.7827,262.3343,0.00043778,6.69e-05,0.0,0 STARLINK-5048,1 53911U 22119AB  24107.48985398  .00006690  00000-0  43778-3 0  9995,2 53911  53.2166 181.7058 0001560  97.7827 262.3343 15.08861710 86909,6917.814,95.436,540.758,538.6,0.0
53911.0,STARLINK-5048,PAYLOAD,2024-04-17 10:00:46,15.0885638,0.000168,53.2171,177.5427,104.5556,255.5623,0.00026796,3.981e-05,0.0,0 STARLINK-5048,1 53911U 22119AB  24108.41721009  .00003981  00000-0  26796-3 0  9997,2 53911  53.2171 177.5427 0001680 104.5556 255.5623 15.08856380 87045,6917.83,95.437,540.858,538.533,0.0
53911.0,STARLINK-5048,PAYLOAD,2024-04-17 21:08:29,15.08842138,0.0001573,53.2169,175.4626,86.2362,273.881,1.0331e-05,-1.24e-06,0.0,0 STARLINK-5048,1 53911U 22119AB  24108.88089509 -.00000124  00000-0  10331-4 0  9996,2 53911  53.2169 175.4626 0001573  86.2362 273.8810 15.08842138 87117,6917.874,95.437,540.827,538.651,0.0
53911.0,STARLINK-5048,PAYLOAD,2024-04-18 09:51:35,15.08816992,0.0001641,53.217,173.0846,97.9751,262.1427,-0.00040159,-6.67e-05,0.0,0 STARLINK-5048,1 53911U 22119AB  24109.41082624 -.00006670  00000-0 -40159-3 0  9990,2 53911  53.2170 173.0846 0001641  97.9751 262.1427 15.08816992 87196,6917.951,95.439,540.951,538.68,0.0
53911.0,STARLINK-5048,PAYLOAD,2024-04-19 12:53:08,15.08864392,0.0001564,53.2168,168.0325,97.2624,262.8546,0.0014675,0.0002316,0.0,0 STARLINK-5048,1 53911U 22119AB  24110.53690883  .00023160  00000-0  14675-2 0  9991,2 53911  53.2168 168.0325 0001564  97.2624 262.8546 15.08864392 87360,6917.806,95.436,540.753,538.589,0.0
53911.0,STARLINK-5048,PAYLOAD,2024-04-20 03:11:36,15.08881582,0.0001846,53.2159,165.3553,84.9374,275.1829,0.0016415,0.00025963,0.0,0 STARLINK-5048,1 53911U 22119AB  24111.13306409  .00025963  00000-0  16415-2 0  9993,2 53911  53.2159 165.3553 0001846  84.9374 275.1829 15.08881582 87452,6917.753,95.435,540.895,538.341,0.0
53911.0,STARLINK-5048,PAYLOAD,2024-04-20 12:43:55,15.08872968,0.0001715,53.2158,163.5681,85.5182,274.6006,0.0013363,0.00021062,0.0,0 STARLINK-5048,1 53911U 22119AB  24111.53050131  .00021062  00000-0  13363-2 0  9990,2 53911  53.2158 163.5681 0001715  85.5182 274.6006 15.08872968 87518,6917.78,95.435,540.831,538.458,0.0
53911.0,STARLINK-5048,PAYLOAD,2024-04-21 03:02:24,15.0881977,0.0001532,53.2161,160.8927,118.4039,241.7108,0.0003463,5.225e-05,0.0,0 STARLINK-5048,1 53911U 22119AB  24112.12667409  .00005225  00000-0  34630-3 0  9992,2 53911  53.2161 160.8927 0001532 118.4039 241.7108 15.08819770 87609,6917.942,95.439,540.867,538.747,0.0
53911.0,STARLINK-5048,PAYLOAD,2024-04-21 09:23:57,15.08811507,0.0001846,53.2165,159.6998,129.1113,231.0043,0.00087716,0.00013689,0.0,0 STARLINK-5048,1 53911U 22119AB  24112.39164033  .00013689  00000-0  87716-3 0  9992,2 53911  53.2165 159.6998 0001846 129.1113 231.0043 15.08811507 88068,6917.967,95.439,541.11,538.555,0.0
53911.0,STARLINK-5048,PAYLOAD,2024-04-22 09:14:44,15.08867234,0.0001603,53.2157,155.2403,109.7602,250.3563,0.0016566,0.00026195,0.0,0 STARLINK-5048,1 53911U 22119AB  24113.38524054  .00026195  00000-0  16566-2 0  9995,2 53911  53.2157 155.2403 0001603 109.7602 250.3563 15.08867234 87798,6917.797,95.436,540.771,538.553,0.0
53911.0,STARLINK-5048,PAYLOAD,2024-04-22 12:25:30,15.08874721,0.0001805,53.2165,154.6443,119.798,240.3192,0.0016037,0.00025352,0.0,0 STARLINK-5048,1 53911U 22119AB  24113.51771663  .00025352  00000-0  16037-2 0  9997,2 53911  53.2165 154.6443 0001805 119.7980 240.3192 15.08874721 88234,6917.774,95.435,540.888,538.391,0.0
53911.0,STARLINK-5048,PAYLOAD,2024-04-23 07:30:07,15.0885972,0.0002845,53.216,151.0662,140.2094,219.9107,0.0010292,0.00016139,0.0,0 STARLINK-5048,1 53911U 22119AB  24114.31259115  .00016139  00000-0  10292-2 0  9999,2 53911  53.2160 151.0662 0002845 140.2094 219.9107 15.08859720 87939,6917.82,95.436,541.653,537.717,0.0
53911.0,STARLINK-5048,PAYLOAD,2024-04-24 02:34:45,15.08847517,0.000159,53.2158,147.5131,99.0247,261.0925,0.00044963,6.877e-05,0.0,0 STARLINK-5048,1 53911U 22119AB  24115.10747543  .00006877  00000-0  44963-3 0  9995,2 53911  53.2158 147.5131 0001590  99.0247 261.0925 15.08847517 88055,6917.857,95.437,540.822,538.622,0.0
53911.0,STARLINK-5048,PAYLOAD,2024-04-24 08:56:17,15.08852727,0.0001411,53.2156,146.3174,92.2979,267.8175,-3.7344e-06,-3.47e-06,0.0,0 STARLINK-5048,1 53911U 22119AB  24115.37243047 -.00000347  00000-0 -37344-5 0  9999,2 53911  53.2156 146.3174 0001411  92.2979 267.8175 15.08852727 88517,6917.841,95.437,540.683,538.73,0.0
53911.0,STARLINK-5048,PAYLOAD,2024-04-25 07:11:42,15.08843592,0.000164,53.2164,142.1615,107.7634,252.3538,0.00010404,1.368e-05,0.0,0 STARLINK-5048,1 53911U 22119AB  24116.29979275  .00001368  00000-0  10404-3 0  9998,2 53911  53.2164 142.1615 0001640 107.7634 252.3538 15.08843592 88235,6917.869,95.437,540.869,538.6,0.0
53911.0,STARLINK-5048,PAYLOAD,2024-04-26 10:13:14,15.08847796,0.000151,53.2159,137.1026,94.6001,265.5163,0.00010365,1.362e-05,0.0,0 STARLINK-5048,1 53911U 22119AB  24117.42586792  .00001362  00000-0  10365-3 0  9992,2 53911  53.2159 137.1026 0001510  94.6001 265.5163 15.08847796 88406,6917.857,95.437,540.766,538.677,0.0
53911.0,STARLINK-5048,PAYLOAD,2024-04-27 10:04:02,15.0884204,0.0001622,53.2158,132.6421,86.5396,273.5782,8.6497e-05,1.089e-05,0.0,0 STARLINK-5048,1 53911U 22119AB  24118.41947150  .00001089  00000-0  86497-4 0  9997,2 53911  53.2158 132.6421 0001622  86.5396 273.5782 15.08842040 88554,6917.874,95.437,540.861,538.617,0.0
